ONEWEB-0183             
1 48219U 21031K   25338.48238583 -.00000052  00000+0 -17402-3 0  9998
2 48219  87.8974 328.5052 0001604  92.9696 267.1617 13.14503053222748
ONEWEB-0185             
1 48220U 21031L   25338.50856010  .00000309  00000+0  80017-3 0  9999
2 48220  87.8996 328.4746 0001316  88.1290 271.9991 13.14503307222672
ONEWEB-0187             
1 48221U 21031M   25338.48859147  .00000075  00000+0  16835-3 0  9998
2 48221  87.8980 328.5210 0001532  81.5298 278.6006 13.14504381222683
ONEWEB-0192             
1 48222U 21031N   25338.45859975 -.00000168  00000+0 -48828-3 0  9997
2 48222  87.8978 328.5177 0001788  84.0321 276.1012 13.14502252222596
ONEWEB-0219             
1 48223U 21031P   25338.66633775  .00000275  00000+0  70785-3 0  9993
2 48223  87.8985 328.4536 0001494  84.1550 275.9750 13.14502942222820
ONEWEB-0202             
1 48224U 21031Q   25338.41895321  .00000194  00000+0  48832-3 0  9992
2 48224  87.8980 328.5151 0001925  64.1423 295.9906 13.14504461222773
ONEWEB-0204             
1 48225U 21031R   25338.52917213 -.00000055  00000+0 -18181-3 0  9992
2 48225  87.8988 328.4828 0001628  96.6766 263.4549 13.14503315222682
ONEWEB-0205             
1 48226U 21031S   25338.50458906  .00000252  00000+0  64619-3 0  9994
2 48226  87.8984 328.4807 0001570  85.2412 274.8897 13.14503003222691
ONEWEB-0206             
1 48227U 21031T   25338.47762734 -.00000130  00000+0 -38530-3 0  9998
2 48227  87.8996 328.4757 0002028  89.0325 271.1037 13.14504020222644
ONEWEB-0182             
1 48228U 21031U   25338.47287184 -.00000175  00000+0 -50530-3 0  9993
2 48228  87.8975 328.5070 0001631  94.5185 265.6131 13.14502990222855
ONEWEB-0186             
1 48229U 21031V   25338.48397473 -.00000018  00000+0 -82907-4 0  9998
2 48229  87.8992 328.4799 0001655  85.0271 275.1047 13.14503519222804
ONEWEB-0181             
1 48230U 21031W   25338.53788473 -.00000087  00000+0 -26892-3 0  9996
2 48230  87.8974 328.5251 0001691  81.3558 278.7763 13.14503004222664
ONEWEB-0188             
1 48231U 21031X   25338.49982977  .00000196  00000+0  49288-3 0  9990
2 48231  87.8977 328.5291 0001689  88.9823 271.1500 13.14503910222568
ONEWEB-0220             
1 48232U 21031Y   25338.53947649 -.00000150  00000+0 -44021-3 0  9995
2 48232  87.8991 328.4686 0001521  86.9682 273.1621 13.14503152222832
ONEWEB-0165             
1 48233U 21031Z   25338.49191426  .00000144  00000+0  35518-3 0  9997
2 48233  87.8975 328.5054 0001783  76.3060 283.8268 13.14503428222783
ONEWEB-0199             
1 48234U 21031AA  25338.47603895 -.00000089  00000+0 -27586-3 0  9990
2 48234  87.8986 328.4827 0001888  90.3402 269.7944 13.14504405222684
ONEWEB-0203             
1 48235U 21031AB  25338.54264286 -.00000192  00000+0 -55272-3 0  9994
2 48235  87.8982 328.4706 0001981  82.4978 277.6377 13.14502836222708
