[{"OBJECT_NAME":"ONEWEB-0183","OBJECT_ID":"2021-031K","EPOCH":"2025-12-04T11:34:38.135712","MEAN_MOTION":13.14503053,"ECCENTRICITY":0.0001604,"INCLINATION":87.8974,"RA_OF_ASC_NODE":328.5052,"ARG_OF_PERICENTER":92.9696,"MEAN_ANOMALY":267.1617,"EPHEMERIS_TYPE":0,"CLASSIFICATION_TYPE":"U","NORAD_CAT_ID":48219,"ELEMENT_SET_NO":999,"REV_AT_EPOCH":22274,"BSTAR":-0.00017402,"MEAN_MOTION_DOT":-5.2e-7,"MEAN_MOTION_DDOT":0},{"OBJECT_NAME":"ONEWEB-0185","OBJECT_ID":"2021-031L","EPOCH":"2025-12-04T12:12:19.592640","MEAN_MOTION":13.14503307,"ECCENTRICITY":0.0001316,"INCLINATION":87.8996,"RA_OF_ASC_NODE":328.4746,"ARG_OF_PERICENTER":88.129,"MEAN_ANOMALY":271.9991,"EPHEMERIS_TYPE":0,"CLASSIFICATION_TYPE":"U","NORAD_CAT_ID":48220,"ELEMENT_SET_NO":999,"REV_AT_EPOCH":22267,"BSTAR":0.00080017,"MEAN_MOTION_DOT":3.09e-6,"MEAN_MOTION_DDOT":0},{"OBJECT_NAME":"ONEWEB-0187","OBJECT_ID":"2021-031M","EPOCH":"2025-12-04T11:43:34.303008","MEAN_MOTION":13.14504381,"ECCENTRICITY":0.0001532,"INCLINATION":87.898,"RA_OF_ASC_NODE":328.521,"ARG_OF_PERICENTER":81.5298,"MEAN_ANOMALY":278.6006,"EPHEMERIS_TYPE":0,"CLASSIFICATION_TYPE":"U","NORAD_CAT_ID":48221,"ELEMENT_SET_NO":999,"REV_AT_EPOCH":22268,"BSTAR":0.00016835,"MEAN_MOTION_DOT":7.5e-7,"MEAN_MOTION_DDOT":0},{"OBJECT_NAME":"ONEWEB-0192","OBJECT_ID":"2021-031N","EPOCH":"2025-12-04T11:00:23.018400","MEAN_MOTION":13.14502252,"ECCENTRICITY":0.0001788,"INCLINATION":87.8978,"RA_OF_ASC_NODE":328.5177,"ARG_OF_PERICENTER":84.0321,"MEAN_ANOMALY":276.1012,"EPHEMERIS_TYPE":0,"CLASSIFICATION_TYPE":"U","NORAD_CAT_ID":48222,"ELEMENT_SET_NO":999,"REV_AT_EPOCH":22259,"BSTAR":-0.00048828,"MEAN_MOTION_DOT":-1.68e-6,"MEAN_MOTION_DDOT":0},{"OBJECT_NAME":"ONEWEB-0219","OBJECT_ID":"2021-031P","EPOCH":"2025-12-04T15:59:31.581600","MEAN_MOTION":13.14502942,"ECCENTRICITY":0.0001494,"INCLINATION":87.8985,"RA_OF_ASC_NODE":328.4536,"ARG_OF_PERICENTER":84.155,"MEAN_ANOMALY":275.975,"EPHEMERIS_TYPE":0,"CLASSIFICATION_TYPE":"U","NORAD_CAT_ID":48223,"ELEMENT_SET_NO":999,"REV_AT_EPOCH":22282,"BSTAR":0.00070785,"MEAN_MOTION_DOT":2.75e-6,"MEAN_MOTION_DDOT":0},{"OBJECT_NAME":"ONEWEB-0202","OBJECT_ID":"2021-031Q","EPOCH":"2025-12-04T10:03:17.557344","MEAN_MOTION":13.14504461,"ECCENTRICITY":0.0001925,"INCLINATION":87.898,"RA_OF_ASC_NODE":328.5151,"ARG_OF_PERICENTER":64.1423,"MEAN_ANOMALY":295.9906,"EPHEMERIS_TYPE":0,"CLASSIFICATION_TYPE":"U","NORAD_CAT_ID":48224,"ELEMENT_SET_NO":999,"REV_AT_EPOCH":22277,"BSTAR":0.00048832,"MEAN_MOTION_DOT":1.94e-6,"MEAN_MOTION_DDOT":0},{"OBJECT_NAME":"ONEWEB-0204","OBJECT_ID":"2021-031R","EPOCH":"2025-12-04T12:42:00.472032","MEAN_MOTION":13.14503315,"ECCENTRICITY":0.0001628,"INCLINATION":87.8988,"RA_OF_ASC_NODE":328.4828,"ARG_OF_PERICENTER":96.6766,"MEAN_ANOMALY":263.4549,"EPHEMERIS_TYPE":0,"CLASSIFICATION_TYPE":"U","NORAD_CAT_ID":48225,"ELEMENT_SET_NO":999,"REV_AT_EPOCH":22268,"BSTAR":-0.00018181,"MEAN_MOTION_DOT":-5.5e-7,"MEAN_MOTION_DDOT":0},{"OBJECT_NAME":"ONEWEB-0205","OBJECT_ID":"2021-031S","EPOCH":"2025-12-04T12:06:36.494784","MEAN_MOTION":13.14503003,"ECCENTRICITY":0.000157,"INCLINATION":87.8984,"RA_OF_ASC_NODE":328.4807,"ARG_OF_PERICENTER":85.2412,"MEAN_ANOMALY":274.8897,"EPHEMERIS_TYPE":0,"CLASSIFICATION_TYPE":"U","NORAD_CAT_ID":48226,"ELEMENT_SET_NO":999,"REV_AT_EPOCH":22269,"BSTAR":0.00064619,"MEAN_MOTION_DOT":2.52e-6,"MEAN_MOTION_DDOT":0},{"OBJECT_NAME":"ONEWEB-0206","OBJECT_ID":"2021-031T","EPOCH":"2025-12-04T11:27:47.002176","MEAN_MOTION":13.1450402,"ECCENTRICITY":0.0002028,"INCLINATION":87.8996,"RA_OF_ASC_NODE":328.4757,"ARG_OF_PERICENTER":89.0325,"MEAN_ANOMALY":271.1037,"EPHEMERIS_TYPE":0,"CLASSIFICATION_TYPE":"U","NORAD_CAT_ID":48227,"ELEMENT_SET_NO":999,"REV_AT_EPOCH":22264,"BSTAR":-0.0003853,"MEAN_MOTION_DOT":-1.3e-6,"MEAN_MOTION_DDOT":0},{"OBJECT_NAME":"ONEWEB-0182","OBJECT_ID":"2021-031U","EPOCH":"2025-12-04T11:20:56.126976","MEAN_MOTION":13.1450299,"ECCENTRICITY":0.0001631,"INCLINATION":87.8975,"RA_OF_ASC_NODE":328.507,"ARG_OF_PERICENTER":94.5185,"MEAN_ANOMALY":265.6131,"EPHEMERIS_TYPE":0,"CLASSIFICATION_TYPE":"U","NORAD_CAT_ID":48228,"ELEMENT_SET_NO":999,"REV_AT_EPOCH":22285,"BSTAR":-0.0005053,"MEAN_MOTION_DOT":-1.75e-6,"MEAN_MOTION_DDOT":0},{"OBJECT_NAME":"ONEWEB-0186","OBJECT_ID":"2021-031V","EPOCH":"2025-12-04T11:36:55.416672","MEAN_MOTION":13.14503519,"ECCENTRICITY":0.0001655,"INCLINATION":87.8992,"RA_OF_ASC_NODE":328.4799,"ARG_OF_PERICENTER":85.0271,"MEAN_ANOMALY":275.1047,"EPHEMERIS_TYPE":0,"CLASSIFICATION_TYPE":"U","NORAD_CAT_ID":48229,"ELEMENT_SET_NO":999,"REV_AT_EPOCH":22280,"BSTAR":-8.2907e-5,"MEAN_MOTION_DOT":-1.8e-7,"MEAN_MOTION_DDOT":0},{"OBJECT_NAME":"ONEWEB-0181","OBJECT_ID":"2021-031W","EPOCH":"2025-12-04T12:54:33.240672","MEAN_MOTION":13.14503004,"ECCENTRICITY":0.0001691,"INCLINATION":87.8974,"RA_OF_ASC_NODE":328.5251,"ARG_OF_PERICENTER":81.3558,"MEAN_ANOMALY":278.7763,"EPHEMERIS_TYPE":0,"CLASSIFICATION_TYPE":"U","NORAD_CAT_ID":48230,"ELEMENT_SET_NO":999,"REV_AT_EPOCH":22266,"BSTAR":-0.00026892,"MEAN_MOTION_DOT":-8.7e-7,"MEAN_MOTION_DDOT":0},{"OBJECT_NAME":"ONEWEB-0188","OBJECT_ID":"2021-031X","EPOCH":"2025-12-04T11:59:45.292128","MEAN_MOTION":13.1450391,"ECCENTRICITY":0.0001689,"INCLINATION":87.8977,"RA_OF_ASC_NODE":328.5291,"ARG_OF_PERICENTER":88.9823,"MEAN_ANOMALY":271.15,"EPHEMERIS_TYPE":0,"CLASSIFICATION_TYPE":"U","NORAD_CAT_ID":48231,"ELEMENT_SET_NO":999,"REV_AT_EPOCH":22256,"BSTAR":0.00049288,"MEAN_MOTION_DOT":1.96e-6,"MEAN_MOTION_DDOT":0},{"OBJECT_NAME":"ONEWEB-0220","OBJECT_ID":"2021-031Y","EPOCH":"2025-12-04T12:56:50.768736","MEAN_MOTION":13.14503152,"ECCENTRICITY":0.0001521,"INCLINATION":87.8991,"RA_OF_ASC_NODE":328.4686,"ARG_OF_PERICENTER":86.9682,"MEAN_ANOMALY":273.1621,"EPHEMERIS_TYPE":0,"CLASSIFICATION_TYPE":"U","NORAD_CAT_ID":48232,"ELEMENT_SET_NO":999,"REV_AT_EPOCH":22283,"BSTAR":-0.00044021,"MEAN_MOTION_DOT":-1.5e-6,"MEAN_MOTION_DDOT":0},{"OBJECT_NAME":"ONEWEB-0165","OBJECT_ID":"2021-031Z","EPOCH":"2025-12-04T11:48:21.392064","MEAN_MOTION":13.14503428,"ECCENTRICITY":0.0001783,"INCLINATION":87.8975,"RA_OF_ASC_NODE":328.5054,"ARG_OF_PERICENTER":76.306,"MEAN_ANOMALY":283.8268,"EPHEMERIS_TYPE":0,"CLASSIFICATION_TYPE":"U","NORAD_CAT_ID":48233,"ELEMENT_SET_NO":999,"REV_AT_EPOCH":22278,"BSTAR":0.00035518,"MEAN_MOTION_DOT":1.44e-6,"MEAN_MOTION_DDOT":0},{"OBJECT_NAME":"ONEWEB-0199","OBJECT_ID":"2021-031AA","EPOCH":"2025-12-04T11:25:29.765280","MEAN_MOTION":13.14504405,"ECCENTRICITY":0.0001888,"INCLINATION":87.8986,"RA_OF_ASC_NODE":328.4827,"ARG_OF_PERICENTER":90.3402,"MEAN_ANOMALY":269.7944,"EPHEMERIS_TYPE":0,"CLASSIFICATION_TYPE":"U","NORAD_CAT_ID":48234,"ELEMENT_SET_NO":999,"REV_AT_EPOCH":22268,"BSTAR":-0.00027586,"MEAN_MOTION_DOT":-8.9e-7,"MEAN_MOTION_DDOT":0},{"OBJECT_NAME":"ONEWEB-0203","OBJECT_ID":"2021-031AB","EPOCH":"2025-12-04T13:01:24.343104","MEAN_MOTION":13.14502836,"ECCENTRICITY":0.0001981,"INCLINATION":87.8982,"RA_OF_ASC_NODE":328.4706,"ARG_OF_PERICENTER":82.4978,"MEAN_ANOMALY":277.6377,"EPHEMERIS_TYPE":0,"CLASSIFICATION_TYPE":"U","NORAD_CAT_ID":48235,"ELEMENT_SET_NO":999,"REV_AT_EPOCH":22270,"BSTAR":-0.00055272,"MEAN_MOTION_DOT":-1.92e-6,"MEAN_MOTION_DDOT":0}]
